{
    "links": {
        "self": "http://www.neowsapp.com/rest/v1/neo/54054458?api_key=iIulBulltgU6a56xZRHN4H3l9WmuAYTsLGpBGhQ2"
    },
    "id": "54054458",
    "neo_reference_id": "54054458",
    "name": "(2020 RR9)",
    "designation": "2020 RR9",
    "nasa_jpl_url": "http://ssd.jpl.nasa.gov/sbdb.cgi?sstr=54054458",
    "absolute_magnitude_h": 23.448,
    "estimated_diameter": {
        "kilometers": {
            "estimated_diameter_min": 0.0543194016,
            "estimated_diameter_max": 0.1214618744
        },
        "meters": {
            "estimated_diameter_min": 54.3194015544,
            "estimated_diameter_max": 121.4618743728
        },
        "miles": {
            "estimated_diameter_min": 0.0337525009,
            "estimated_diameter_max": 0.0754728863
        },
        "feet": {
            "estimated_diameter_min": 178.2132653958,
            "estimated_diameter_max": 398.4969759173
        }
    },
    "is_potentially_hazardous_asteroid": false,
    "close_approach_data": [
        {
            "close_approach_date": "2020-09-02",
            "close_approach_date_full": "2020-Sep-02 06:45",
            "epoch_date_close_approach": 1599029100000,
            "relative_velocity": {
                "kilometers_per_second": "15.5935091645",
                "kilometers_per_hour": "56136.6329922929",
                "miles_per_hour": "34881.1206501278"
            },
            "miss_distance": {
                "astronomical": "0.2319822682",
                "lunar": "90.2411023298",
                "kilometers": "34704053.200488734",
                "miles": "21564098.7182391692"
            },
            "orbiting_body": "Earth"
        }
    ],
    "orbital_data": {
        "orbit_id": "3",
        "orbit_determination_date": "2020-11-06 05:56:18",
        "first_observation_date": "2020-09-10",
        "last_observation_date": "2020-09-21",
        "data_arc_in_days": 11,
        "observations_used": 23,
        "orbit_uncertainty": "8",
        "minimum_orbit_intersection": ".213581",
        "jupiter_tisserand_invariant": "4.040",
        "epoch_osculation": "2459108.5",
        "eccentricity": ".3416622043657871",
        "semi_major_axis": "1.672499667006799",
        "inclination": "29.35967217940169",
        "ascending_node_longitude": "349.562886509131",
        "orbital_period": "790.0371012155933",
        "perihelion_distance": "1.101069743976211",
        "perihelion_argument": "302.4063070790326",
        "aphelion_distance": "2.243929590037386",
        "perihelion_time": "2459038.937331673434",
        "mean_anomaly": "31.69795514543802",
        "mean_motion": ".4556748024188798",
        "equinox": "J2000",
        "orbit_class": {
            "orbit_class_type": "AMO",
            "orbit_class_description": "Near-Earth asteroid orbits similar to that of 1221 Amor",
            "orbit_class_range": "1.017 AU < q (perihelion) < 1.3 AU"
        }
    },
    "is_sentry_object": false
}